{
    "links": {
        "self": "http://www.neowsapp.com/rest/v1/neo/54016959?api_key=iIulBulltgU6a56xZRHN4H3l9WmuAYTsLGpBGhQ2"
    },
    "id": "54016959",
    "neo_reference_id": "54016959",
    "name": "(2020 JJ)",
    "designation": "2020 JJ",
    "nasa_jpl_url": "http://ssd.jpl.nasa.gov/sbdb.cgi?sstr=54016959",
    "absolute_magnitude_h": 29.966,
    "estimated_diameter": {
        "kilometers": {
            "estimated_diameter_min": 0.0026999454,
            "estimated_diameter_max": 0.0060372614
        },
        "meters": {
            "estimated_diameter_min": 2.6999453685,
            "estimated_diameter_max": 6.0372613795
        },
        "miles": {
            "estimated_diameter_min": 0.0016776678,
            "estimated_diameter_max": 0.0037513791
        },
        "feet": {
            "estimated_diameter_min": 8.8580887628,
            "estimated_diameter_max": 19.8072886245
        }
    },
    "is_potentially_hazardous_asteroid": false,
    "close_approach_data": [
        {
            "close_approach_date": "2020-05-04",
            "close_approach_date_full": "2020-May-04 06:00",
            "epoch_date_close_approach": 1588572000000,
            "relative_velocity": {
                "kilometers_per_second": "12.3997019541",
                "kilometers_per_hour": "44638.9270346527",
                "miles_per_hour": "27736.8933010596"
            },
            "miss_distance": {
                "astronomical": "0.0015410869",
                "lunar": "0.5994828041",
                "kilometers": "230543.317724903",
                "miles": "143252.9749055414"
            },
            "orbiting_body": "Moon"
        },
        {
            "close_approach_date": "2020-05-04",
            "close_approach_date_full": "2020-May-04 12:05",
            "epoch_date_close_approach": 1588593900000,
            "relative_velocity": {
                "kilometers_per_second": "14.3572480085",
                "kilometers_per_hour": "51686.0928304488",
                "miles_per_hour": "32115.7280701197"
            },
            "miss_distance": {
                "astronomical": "0.0000895979",
                "lunar": "0.0348535831",
                "kilometers": "13403.654996473",
                "miles": "8328.6450104074"
            },
            "orbiting_body": "Earth"
        }
    ],
    "orbital_data": {
        "orbit_id": "2",
        "orbit_determination_date": "2020-05-05 06:01:58",
        "first_observation_date": "2020-05-04",
        "last_observation_date": "2020-05-04",
        "data_arc_in_days": null,
        "observations_used": 26,
        "orbit_uncertainty": "7",
        "minimum_orbit_intersection": "3.51662E-6",
        "jupiter_tisserand_invariant": "4.411",
        "epoch_osculation": "2459000.5",
        "eccentricity": ".4220283300195718",
        "semi_major_axis": "1.506653254846893",
        "inclination": "11.19207059187889",
        "ascending_node_longitude": "44.18849938539882",
        "orbital_period": "675.4891818660082",
        "perihelion_distance": ".8708028977853064",
        "perihelion_argument": "237.3315441105562",
        "aphelion_distance": "2.142503611908479",
        "perihelion_time": "2459017.887129107740",
        "mean_anomaly": "350.733579979038",
        "mean_motion": ".5329470991756173",
        "equinox": "J2000",
        "orbit_class": {
            "orbit_class_type": "APO",
            "orbit_class_description": "Near-Earth asteroid orbits which cross the Earth’s orbit similar to that of 1862 Apollo",
            "orbit_class_range": "a (semi-major axis) > 1.0 AU; q (perihelion) < 1.017 AU"
        }
    },
    "is_sentry_object": false
}